name,near,Address,Lat,Lng,Charging Speed
Electrify America Charging Station,"Bothell, WA, USA","14003 NE Woodinville Duvall Rd, Woodinville, WA 98072",47.7541388,-122.151152,Very fast
bp pulse Charging Station,"Bothell, WA, USA","13023 NE 175th St, Woodinville, WA 98072",47.7541051,-122.16614369999999,Very fast
Tesla Supercharger,"Bothell, WA, USA","19128 112th Ave NE, Bothell, WA 98011",47.7675258,-122.19157759999999,Fast
ChargePoint Charging Station,"Bothell, WA, USA","18231 110th Ave NE, Bothell, WA 98011",47.759647,-122.19388599999999,Slow
EVgo Charging Station,"Bothell, WA, USA","3000 196th St SW, Lynnwood, WA 98036",47.82057,-122.27356999999999,Fast
Electrify America Charging Station,"Bothell, WA, USA","11224 NE 124th St, Kirkland, WA 98034",47.7113985,-122.1908598,Very fast
ChargePoint Charging Station,"Bothell, WA, USA","South Parking Garage, 18140 Campus Way NE, Bothell, WA 98011",47.7577195,-122.19080109999999,Slow
Electrify America Charging Station,"Bothell, WA, USA","20809 Bothell Everett Hwy, Bothell, WA 98021",47.8083087,-122.2067009,Very fast
Electrify America Charging Station Target,"Bothell, WA, USA","18305 Alderwood Mall Pkwy, Lynnwood, WA 98037",47.8319914,-122.267303,Very fast
Electrify America Charging Station,"Bothell, WA, USA","13000 Lake City Way NE, Seattle, WA 98125",47.7230661,-122.2920857,Very fast
ChargePoint Charging Station,"Bothell, WA, USA","North Parking Garage, Campus Way NE, Bothell, WA 98011",47.7618456,-122.1918719,Slow
ChargePoint Charging Station,"Bothell, WA, USA","11536 Lake City Way NE, Seattle, WA 98125",47.7133265,-122.29817829999999,Fast
EV Connect Charging Station,"Bothell, WA, USA","13023 NE 175th St, Woodinville, WA 98072",47.7541051,-122.16614369999999,Not Applicable
Electric Vehicle Charging Station,"Bothell, WA, USA","17945 Campus Way NE, Bothell, WA 98011",47.760450899999995,-122.1909479,Not Applicable
Shell Recharge Charging Station,"Bothell, WA, USA","11930 124th Ave NE, Kirkland, WA 98034",47.707366199999996,-122.17398449999999,Fast
Blink Charging Station,"Bothell, WA, USA","3830 Monte Villa Pkwy, Bothell, WA 98021",47.777048699999995,-122.1815525,Slow
ChargePoint Charging Station,"Bothell, WA, USA","13550 NE Village Square Dr, Woodinville, WA 98072",47.752007,-122.157917,Slow
Volta Charging Station,"Bothell, WA, USA","Lynnwood, WA 98037",47.828184,-122.2752879,Fast
Blink Charging Station,"Bothell, WA, USA","11804 N Creek Pkwy S, Bothell, WA 98011",47.7634842,-122.18136969999999,Slow
Blink Charging Station,"Bothell, WA, USA","13205 NE 175th St, Woodinville, WA 98072",47.7534858,-122.1629554,Slow
ChargePoint Charging Station,"Bothell, WA, USA","12632 Totem Lake Blvd NE, Kirkland, WA 98034",47.713104,-122.18172,Slow
Blink Charging Station,"Bothell, WA, USA","Parking lot, 6704 NE 181st St, Kenmore, WA 98028",47.7596564,-122.2508416,Slow
ChargePoint Charging Station,"Bothell, WA, USA","14580 NE 145th St, Woodinville, WA 98072",47.734210999999995,-122.1470409,Slow
ChargePoint Charging Station,"Bothell, WA, USA","12039 NE 128th St, Kirkland, WA 98034",47.7144348,-122.1793996,Slow
Blink Charging Station,"Bothell, WA, USA","18911 N Creek Pkwy, Bothell, WA 98011",47.7647852,-122.18458589999999,Slow
EV Connect Charging Station,"Bothell, WA, USA","19820 N Creek Pkwy, Bothell, WA 98011",47.7730095,-122.1855875,Not Applicable
ChargePoint Charging Station,"Bothell, WA, USA","Bothell, WA 98011",47.759585099999995,-122.1930383,Not Applicable
Electric Vehicle Charging Station,"Bothell, WA, USA","20000 N Creek Pkwy, Bothell, WA 98011",47.773958699999994,-122.18580349999999,Not Applicable
EV Connect Charging Station,"Bothell, WA, USA","19910 N Creek Pkwy S, Bothell, WA 98011",47.771795,-122.1809892,Not Applicable
ChargePoint Charging Station,"Bothell, WA, USA","12040 NE 128th St, Kirkland, WA 98034",47.714793,-122.17686889999999,Slow
Blink Charging Station,"Bothell, WA, USA","11010 NE 124th Ln, Kirkland, WA 98034",47.711825999999995,-122.19471899999999,Slow
Blink Charging Station,"Bothell, WA, USA","9926 NE 126th St, Kirkland, WA 98034",47.7134473,-122.2090527,Slow
ChargePoint Charging Station,"Bothell, WA, USA","12540 120th Ave NE, Kirkland, WA 98034",47.712309,-122.17951409999999,Slow
Volta Charging Station,"Bothell, WA, USA","Kenmore, WA 98028",47.758854899999996,-122.2474001,Slow
Blink Charging Station,"Bothell, WA, USA","9834 NE 190th St, Bothell, WA 98011",47.766732,-122.20927499999999,Not Applicable
EV Connect Charging Station,"Bothell, WA, USA","19211 Woodinville Snohomish Rd, Woodinville, WA 98072",47.7668369,-122.15458,Slow
Sun Country Highway Charging Station,"Bothell, WA, USA","18712 12th Ave NE, Shoreline, WA 98155",47.764288799999996,-122.3156818,Medium
Volta Charging Station,"Bothell, WA, USA","Alderwood - JCPenney Parking, 3000 184th St SW, Lynnwood, WA 98037",47.830638,-122.2752062,Fast
ChargePoint Charging Station,"Bothell, WA, USA","22503 WA-9, Woodinville, WA 98072",47.793212999999994,-122.14057,Slow
Shell Recharge Charging Station,"Bothell, WA, USA","19910 N Creek Pkwy, Bothell, WA 98011",47.7717958,-122.180989,Not Applicable
ChargePoint Charging Station,"Bothell, WA, USA","11601 Willows Rd NE, Redmond, WA 98052",47.7048415,-122.15444099999999,Slow
Shell Recharge Charging Station,"Bothell, WA, USA","13023 NE 175th St, Woodinville, WA 98072",47.754031,-122.1661491,Not Applicable
Tesla Destination Charger,"Bothell, WA, USA","19501 144th Ave NE, Woodinville, WA 98072",47.7695985,-122.1513306,Medium
Blink Charging Station,"Bothell, WA, USA","22309 30th Dr SE, Bothell, WA 98021",47.797296599999996,-122.1953075,Slow
Electric Vehicle Charging Station,"Bothell, WA, USA","6101 238th St SE, Woodinville, WA 98072",47.7825426,-122.15068219999999,Not Applicable
Blink Charging Station,"Bothell, WA, USA","11605 132nd Ave NE, Kirkland, WA 98034",47.7054932,-122.16783029999999,Slow
Volta Charging Station,"Bothell, WA, USA","Seattle, WA 98125",47.754741499999994,-122.3128146,Slow
Volta Charging Station,"Bothell, WA, USA","Lynnwood, WA 98036",47.822022399999994,-122.2839149,Slow
ChargePoint Charging Station,"Bothell, WA, USA","20816 44th Ave W, Lynnwood, WA 98036",47.8107,-122.29534299999999,Slow
ChargePoint Charging Station,"Bothell, WA, USA","1519 NE 177th St, Shoreline, WA 98155",47.7568957,-122.31234429999999,Slow
Blink Charging Station,"Bothell, WA, USA","12221 120th Ave NE, Kirkland, WA 98034",47.7083478,-122.18381629999999,Not Applicable
ChargePoint Charging Station,"Bothell, WA, USA","23204 58th Ave W, Mountlake Terrace, WA 98043",47.787897,-122.311661,Slow
Volta Charging Station,"Bothell, WA, USA","8234 NE 84th St, Kirkland, WA 98033",47.6787272,-122.1740315,Slow
Blink Charging Station,"Bothell, WA, USA","11431 Willows Rd NE, Redmond, WA 98052",47.703728,-122.15423709999999,Slow
ChargePoint Charging Station,"Bothell, WA, USA","21975 52nd Ave W, Mountlake Terrace, WA 98043",47.7989008,-122.30250009999999,Slow
Blink Charging Station,"Bothell, WA, USA","20812 Bothell Everett Hwy, Bothell, WA 98201",47.8081738,-122.2081999,Slow
Blink Charging Station,"Bothell, WA, USA","11607 98th Ave NE, Kirkland, WA 98034",47.7047538,-122.21115839999999,Slow
Volta Charging Station,"Bothell, WA, USA","Mountlake Terrace, WA 98043",47.8073826,-122.29067669999999,Slow
ChargePoint Charging Station,"Bothell, WA, USA","20800 44th Ave W, Lynnwood, WA 98036",47.810176,-122.294266,Slow
ChargePoint Charging Station,"Bothell, WA, USA","52 Kirkland Ave, Kirkland, WA 98033",47.675570199999996,-122.2073726,Slow
ChargePoint Charging Station,"Bothell, WA, USA","123 5th Ave, Kirkland, WA 98033",47.678475899999995,-122.2068063,Slow
ChargePoint Charging Station,"Bothell, WA, USA","308 Kirkland Ave, Kirkland, WA 98033",47.675739199999995,-122.20318599999999,Slow
Tesla Destination Charger,"Bothell, WA, USA","14850 NE 145th St, Woodinville, WA 98072",47.7339591,-122.1469968,Medium
ChargePoint Charging Station,"Bothell, WA, USA","434 Kirkland Way, Kirkland, WA 98033",47.67624,-122.199675,Slow
Blink Charging Station,"Bothell, WA, USA","9931 Willows Rd NE, Redmond, WA 98052",47.688818,-122.15031499999999,Slow
EVmatch Charging Station,"Bothell, WA, USA","32nd Ave NE #14300, Seattle, WA 98155",47.732222199999995,-122.29331029999999,Not Applicable
Electric Vehicle Charging Station,"Bothell, WA, USA","14216 140th Pl NE, Kirkland, WA 98034",47.7300553,-122.15126989999999,Not Applicable
Blink Charging Station,"Bothell, WA, USA","8310 Maltby Rd, Woodinville, WA 98072",47.804707199999996,-122.1206254,Slow
Blink Charging Station,"Bothell, WA, USA","14477 Juanita Dr NE, Kenmore, WA 98028",47.732838699999995,-122.2572381,Slow
Blink Charging Station,"Bothell, WA, USA","22232 17th Ave SE, Bothell, WA 98021",47.7954328,-122.21141709999999,Slow
Blink Charging Station,"Bothell, WA, USA","12405 NE 85th St, Kirkland, WA 98033",47.678973,-122.1750105,Slow
Blink Charging Station,"Bothell, WA, USA","20311 52nd Ave W, Lynnwood, WA 98036",47.8142359,-122.3016909,Slow
Blink Charging Station,"Bothell, WA, USA","13000 Lake City Way NE, Seattle, WA 98125",47.7237374,-122.2924412,Not Applicable
Blink Charging Station,"Bothell, WA, USA","12277 134th Ct NE, Redmond, WA 98052",47.7096188,-122.16239069999999,Slow
Volta Charging Station,"Bothell, WA, USA","00372800400700, Lynnwood, WA 98037",47.831301499999995,-122.2667254,Slow
Volta Charging Station,"Bothell, WA, USA","3000 184th St SW, Lynnwood, WA 98037",47.8289507,-122.2712126,Slow
Blink Charging Station,"Bothell, WA, USA","4400 Alderwood Mall Blvd, Lynnwood, WA 98036",47.816835999999995,-122.290084,Slow
Volta Charging Station,"Bothell, WA, USA","Lynnwood, WA 98037",47.831141099999996,-122.2700502,Slow
EVPassport Charging Station,"Bothell, WA, USA","3801 Alderwood Mall Blvd, Lynnwood, WA 98036",47.819359,-122.284443,Medium
Blink Charging Station,"Bothell, WA, USA","20124 Broadway Ave, Snohomish, WA 98296",47.8147799,-122.1123906,Slow
Blink Charging Station,"Bothell, WA, USA","14027 Lake City Way NE, Seattle, WA 98125",47.731272999999995,-122.29306199999999,Slow
Volta Charging Station,"Bothell, WA, USA","Bothell, WA 98012",47.810333,-122.20602219999999,Slow
Blink Charging Station,"Bothell, WA, USA","11 Main St S, Kirkland, WA 98033",47.6753316,-122.20579679999999,Slow
Blink Charging Station,"Bothell, WA, USA","3611 NE 155th St, Lake Forest Park, WA 98155",47.740732099999995,-122.2901407,Slow
Pacific Electric Vehicle Technologies,"Bothell, WA, USA","2201 192nd St SE, Bothell, WA 98012",47.826359499999995,-122.2033041,Not Applicable
Volta Charging Station,"Bothell, WA, USA","Lynnwood, WA 98037",47.8311755,-122.2737075,Not Applicable
Tesla Supercharger,"Bothell, WA, USA","Fred Meyer, 12221 120th Ave NE, Kirkland, WA 98034",47.709207,-122.18345199999999,Very fast
ZEF Charging Station,"Bothell, WA, USA","Alderwood Mall Blvd, Lynnwood, WA 98036",47.8248409,-122.27407009999999,Not Applicable
ChargePoint Charging Station,"Vancouver, WA, USA","850 Officers Row, Vancouver, WA 98661",45.629459999999995,-122.66336609999999,Fast
Electrify America Charging Station,"Vancouver, WA, USA","7809 NE Vancouver Plaza Dr, Vancouver, WA 98663",45.6499434,-122.5933147,Very fast
Electric Vehicle Charging Station,"Vancouver, WA, USA","4715 N Lagoon Ave, Portland, OR 97217",45.557316,-122.7029742,Very fast
Blink Charging Station,"Vancouver, WA, USA","1300 Franklin St, Vancouver, WA 98660",45.6323571,-122.6782111,Slow
EVgo Charging Station,"Vancouver, WA, USA","2170 NW Raleigh St, Portland, OR 97210",45.53389,-122.69546,Fast
Tesla Supercharger,"Vancouver, WA, USA","Parking lot, 8700 NE Vancouver Mall Dr, Vancouver, WA 98662",45.6596865,-122.58358519999999,Very fast
Electrify America Charging Station,"Vancouver, WA, USA","9000 NE Hwy 99, Vancouver, WA 98665",45.6874118,-122.6612488,Super fast
ChargePoint Charging Station,"Vancouver, WA, USA","4717 N Lagoon Ave, Portland, OR 97217",45.557262699999995,-122.7032079,Fast
ChargePoint Charging Station,"Vancouver, WA, USA","815 Columbia St, Vancouver, WA 98660",45.627361,-122.673261,Slow
Electrify America Charging Station,"Vancouver, WA, USA","6850 N Lombard St, Portland, OR 97203",45.5851792,-122.73903609999999,Very fast
ChargePoint Charging Station,"Vancouver, WA, USA","1200 Fort Vancouver Way, Vancouver, WA 98663",45.630035899999996,-122.66344199999999,Slow
Tesla Supercharger,"Vancouver, WA, USA","12154 North Pavilion Avenue, Portland, OR 97239",45.6118379,-122.6849493,Very fast
ChargePoint Charging Station,"Vancouver, WA, USA","4301 NE Fourth Plain Blvd, Vancouver, WA 98661",45.639139,-122.62348999999999,Fast
Blink Charging Station,"Vancouver, WA, USA","401 E 13th St, Vancouver, WA 98660",45.6303446,-122.6680026,Slow
Tesla Supercharger,"Vancouver, WA, USA","6916 NE Fourth Plain Blvd, Vancouver, WA 98661",45.645567299999996,-122.60163949999999,Very fast
EVgo Charging Station,"Vancouver, WA, USA","NE 82nd Way, Portland, OR 97218",45.5793965,-122.5745085,Fast
bp pulse Charging Station,"Vancouver, WA, USA","10314 SE Mill Plain Blvd, Vancouver, WA 98664",45.621525299999995,-122.5662797,Fast
Blink Charging Station,"Vancouver, WA, USA","1119 C St, Vancouver, WA 98660",45.629919799999996,-122.66848979999999,Slow
ChargePoint Charging Station,"Vancouver, WA, USA","3103 NW Lower River Rd, Vancouver, WA 98660",45.6434292,-122.7042194,Slow
OpConnect Charging Station,"Vancouver, WA, USA","1600 Washington St, Vancouver, WA 98660",45.6335105,-122.6733804,Slow
Blink Charging Station,"Vancouver, WA, USA","301 Grove St, Vancouver, WA 98661",45.6221234,-122.63702869999999,Medium
Tesla Supercharger,"Vancouver, WA, USA","800 NE Tenney Rd, Vancouver, WA 98685",45.7215479,-122.66389199999999,Very fast
ChargePoint Charging Station,"Vancouver, WA, USA","1215 N Hayden Meadows Dr, Portland, OR 97217",45.5939724,-122.6809924,Slow
Nissan Charging Station,"Vancouver, WA, USA","3608 NE Auto Mall Dr, Vancouver, WA 98662",45.647959799999995,-122.59792669999999,Fast
Blink Charging Station,"Vancouver, WA, USA","4000 Columbia House Blvd, Vancouver, WA 98661",45.6195464,-122.6289338,Medium
Blink Charging Station,"Vancouver, WA, USA","9622 NE Vancouver Way, Portland, OR 97211",45.5930748,-122.6628259,Not Applicable
Blink Charging Station,"Vancouver, WA, USA","10000 NE 33rd Dr, Portland, OR 97218",45.5947946,-122.63478769999999,Not Applicable
Electric Vehicle Charging Station,"Vancouver, WA, USA","2001 NE Alberta St, Portland, OR 97211",45.5592143,-122.6447554,Medium
Tesla Destination Charger,"Vancouver, WA, USA","909 N Hayden Island Dr, Portland, OR 97217",45.612749,-122.67568639999999,Medium
Electric Vehicle Charging Station,"Vancouver, WA, USA","2915 Z St, Vancouver, WA 98661",45.6428142,-122.64382029999999,Slow
ChargePoint Charging Station,"Vancouver, WA, USA","5000 N Willamette Blvd, Portland, OR 97203",45.571625,-122.72826699999999,Slow
Blink Charging Station,"Vancouver, WA, USA","7900 NE 33rd Dr, Portland, OR 97211",45.580585,-122.63297399999999,Not Applicable
Blink Charging Station,"Vancouver, WA, USA","1701 SE Columbia River Dr, Vancouver, WA 98661",45.6154495,-122.653628,Slow
OpConnect Charging Station,"Vancouver, WA, USA","10910 N Denver Ave, Portland, OR 97217",45.6001371,-122.6830281,Medium
ChargePoint Charging Station,"Vancouver, WA, USA","5055 N Greeley Ave, Portland, OR 97217",45.559039999999996,-122.693629,Slow
Blink Charging Station,"Vancouver, WA, USA","2903 NE Andresen Rd, Vancouver, WA 98661",45.643220299999996,-122.6002723,Slow
Volta Charging Station,"Vancouver, WA, USA","8700 NE Vancouver Mall Dr, Vancouver, WA 98662",45.657709999999994,-122.5818501,Slow
EVPassport Charging Station,"Vancouver, WA, USA","4721 NE 66th Ave, Vancouver, WA 98661",45.656859,-122.604327,Not Applicable
Tesla Destination Charger,"Vancouver, WA, USA","1215 N Hayden Meadows Dr, Portland, OR 97217",45.594077,-122.68021499999999,Medium
Blink Charging Station,"Vancouver, WA, USA","6116 NE Martin Luther King Jr Blvd, Portland, OR 97211",45.5669034,-122.66081519999999,Slow
OpConnect Charging Station,"Vancouver, WA, USA","3620 NE Martin Luther King Jr Blvd, Portland, OR 97212",45.5492717,-122.6613569,Slow
ChargePoint Charging Station,"Vancouver, WA, USA","8778 NE 54th St, Vancouver, WA 98662",45.662011,-122.58410599999999,Slow
Eaton Charging Station,"Vancouver, WA, USA","804 N Alberta St, Portland, OR 97217",45.5588167,-122.6752774,Slow
Blink Charging Station,"Vancouver, WA, USA","6708 NE 63rd St, Vancouver, WA 98661",45.6682716,-122.60356189999999,Slow
Volta Charging Station,"Vancouver, WA, USA","St WA 98686 US, Vancouver, WA 98686",45.722255399999995,-122.6508978,Slow
ChargePoint Charging Station,"Vancouver, WA, USA","2349 NW 27th Ave, Portland, OR 97210",45.538247999999996,-122.707833,Slow
Blink Charging Station,"Vancouver, WA, USA","2725 N Gantenbein Ave, Portland, OR 97227",45.5421614,-122.66985679999999,Slow
EVPassport Charging Station,"Vancouver, WA, USA","13414 NE 23rd Ave, Vancouver, WA 98686",45.718683999999996,-122.647954,Not Applicable
Blink Charging Station,"Vancouver, WA, USA","Patient/Visitor Lot, Vancouver, WA 98664",45.6255461,-122.58179659999999,Slow
Blink Charging Station,"Vancouver, WA, USA","9812 NE Hwy 99, Vancouver, WA 98665",45.692470799999995,-122.65750489999999,Slow
Blink Charging Station,"Vancouver, WA, USA","2211 NE 139th St, Vancouver, WA 98686",45.7204354,-122.64870909999999,Slow
Blink Charging Station,"Vancouver, WA, USA","N Ramsay Wy, Portland, OR 97227",45.533221,-122.66825689999999,Not Applicable
Blink Charging Station,"Vancouver, WA, USA","4555 N Channel Ave, Portland, OR 97217",45.5557628,-122.7028983,Slow
Blink Charging Station,"Vancouver, WA, USA","1441 NE 2nd Ave, Portland, OR 97232",45.5338746,-122.6643751,Not Applicable
Volta Charging Station,"Vancouver, WA, USA","Parking lot, Vancouver, WA 98662",45.657385399999995,-122.5847915,Slow
Blink Charging Station,"Vancouver, WA, USA","9714 E Mill Plain Blvd, Vancouver, WA 98664",45.6213525,-122.5723627,Slow
Blink Charging Station,"Vancouver, WA, USA","1620 NE Grand Ave, Portland, OR 97232",45.534514699999995,-122.6605144,Slow
EVmatch Charging Station,"Vancouver, WA, USA","N Sumner St #112, Portland, OR 97217",45.560424399999995,-122.66791289999999,Not Applicable
bp pulse Charging Station,"Vancouver, WA, USA","13014 SE Mill Plain Blvd, Vancouver, WA 98684",45.6194792,-122.5378042,Not Applicable
OpConnect Charging Station,"Vancouver, WA, USA","7900 NE 33rd Dr, Portland, OR 97211",45.580380399999996,-122.6319309,Slow
Tesla Destination Charger,"Vancouver, WA, USA","7801 NE Greenwood Dr, Vancouver, WA 98662",45.6534749,-122.5919065,Medium
Blink Charging Station,"Vancouver, WA, USA","5135 NE Columbia Blvd, Portland, OR 97218",45.5702612,-122.6088927,Slow
Tesla Destination Charger,"Vancouver, WA, USA","9189 NE NE Cascades Pkwy, Portland, OR 97220",45.577998699999995,-122.56860329999999,Medium
OpConnect Charging Station,"Vancouver, WA, USA","6329 NE Martin Luther King Jr Blvd, Portland, OR 97211",45.5681722,-122.6618759,Slow
Shell Recharge Charging Station,"Vancouver, WA, USA","Parking lot, 5030 N Greeley Ave, Portland, OR 97217",45.560048099999996,-122.6929289,Not Applicable
Electric Vehicle Charging Station,"Vancouver, WA, USA","1894-1896 NW 17th Ave, Portland, OR 97209",45.5365543,-122.68859649999999,Unknown
Blink Charging Station,"Vancouver, WA, USA","5211 N Williams Ave, Portland, OR 97217",45.560748499999995,-122.6674087,Slow
EV Connect Charging Station,"Vancouver, WA, USA","11714 NE 72nd Ave, Vancouver, WA 98686",45.7066344,-122.60001229999999,Not Applicable
Blink Charging Station,"Vancouver, WA, USA","3912 N Vancouver Ave, Portland, OR 97227",45.5510656,-122.667757,Slow
OpConnect Charging Station,"Vancouver, WA, USA","6380 NE Alberta St, Portland, OR 97218",45.558852599999994,-122.59958739999999,Medium
OpConnect Charging Station,"Vancouver, WA, USA","2054 N Vancouver Ave, Portland, OR 97227",45.5380755,-122.66750649999999,Slow
Blink Charging Station,"Vancouver, WA, USA","5406 NE 107th Ave, Vancouver, WA 98662",45.661573,-122.56363259999999,Slow
Blink Charging Station,"Vancouver, WA, USA","2723 NE 134th St, Vancouver, WA 98682",45.7161441,-122.6423363,Slow
OpConnect Charging Station,"Vancouver, WA, USA","Graham and, N Albina Ave, Portland, OR 97227",45.542651899999996,-122.6744593,Slow
Blink Charging Station,"Vancouver, WA, USA","2701 NW Vaughn St, Portland, OR 97210",45.5375454,-122.70780049999999,Slow
OpConnect Charging Station,"Vancouver, WA, USA","1631 NW Thurman St, Portland, OR 97209",45.5359109,-122.69023019999999,Slow
OpConnect Charging Station,"Vancouver, WA, USA","5135 NE Columbia Blvd, Portland, OR 97218",45.5708809,-122.60987089999999,Slow
OpConnect Charging Station,"Vancouver, WA, USA","2929 N Kerby Ave, Portland, OR 97227",45.54401,-122.67209009999999,Slow
OpConnect Charging Station,"Vancouver, WA, USA","2227 River Plaza Dr, Portland, OR 95833",45.5498008,-122.69339249999999,Not Applicable
OpConnect Charging Station,"Vancouver, WA, USA","62723 NE Killingsworth St, Portland, OR 97218",45.5653904,-122.5928407,Slow
OpConnect Charging Station,"Vancouver, WA, USA","4145 NE Cully Blvd, Portland, OR 97218",45.5530848,-122.6033344,Slow
Electric Era Charging Station,"Vancouver, WA, USA","6060 NE Columbia Blvd, Portland, OR 97218",45.5683327,-122.5998137,Very fast
EVgo Charging Station,"Redmond, WA, USA","7525 166th Ave NE, Redmond, WA 98052",47.671369999999996,-122.11948989999999,Fast
Electrify America Charging Station,"Redmond, WA, USA","NE 76th St, Redmond, WA 98052",47.671849599999994,-122.10449899999999,Very fast
FLO Charging Station,"Redmond, WA, USA","7597 170th Ave NE, Redmond, WA 98052",47.670465,-122.11488899999999,Fast
ChargePoint Charging Station,"Redmond, WA, USA","15670 NE 85th St, Redmond, WA 98052",47.6792981,-122.1299689,Slow
Tesla Destination Charger,"Redmond, WA, USA","7401 164th Ave NE, Redmond, WA 98052",47.671225,-122.122192,Slow
EVgo Charging Station,"Redmond, WA, USA","2041 148th Ave NE, Bellevue, WA 98007",47.628025199999996,-122.14375299999999,Super fast
Electrify America Charging Station,"Redmond, WA, USA","2400 148th Ave NE, Redmond, WA 98502",47.6318737,-122.1428095,Very fast
ChargePoint Charging Station,"Redmond, WA, USA","15808 Bear Creek Pkwy, Redmond, WA 98052",47.6737906,-122.1288848,Slow
EVgo Charging Station,"Redmond, WA, USA","888 116th Ave NE, Bellevue, WA 98004",47.618936299999994,-122.1841633,Super fast
Electrify America Charging Station,"Redmond, WA, USA","11224 NE 124th St, Kirkland, WA 98034",47.7113985,-122.1908598,Very fast
ChargePoint Charging Station,"Redmond, WA, USA","17601 NE Union Hill Rd, Redmond, WA 98052",47.674613099999995,-122.1040068,Slow
Blink Charging Station,"Redmond, WA, USA","16015 Cleveland St, Redmond, WA 98052",47.6740345,-122.1267027,Slow
bp pulse Charging Station,"Redmond, WA, USA","13948 NE 20th St, Bellevue, WA 98005",47.628440499999996,-122.1541082,Very fast
bp pulse Charging Station,"Redmond, WA, USA","12903 NE 20th St, Bellevue, WA 98005",47.627770999999996,-122.16787339999999,Fast
ChargePoint Charging Station,"Redmond, WA, USA","18080 NE 76th St, Redmond, WA 98052",47.6723213,-122.0990405,Slow
ChargePoint Charging Station,"Redmond, WA, USA","13817 NE 20th St, Bellevue, WA 98005",47.6274449,-122.1559133,Medium
Electric Circuit Charging Station,"Redmond, WA, USA","8020 161st Avenue Northeast, Redmond, WA 98052",47.67516,-122.12505999999999,Not Applicable
Blink Charging Station,"Redmond, WA, USA","16080 NE 85th St, Redmond, WA 98052",47.679116,-122.1259788,Slow
Blink Charging Station,"Redmond, WA, USA","16630 Redmond Way, Redmond, WA 98052",47.673331,-122.1183197,Slow
ChargePoint Charging Station,"Redmond, WA, USA","18130 NE 76th St, Redmond, WA 98052",47.672408999999995,-122.0971198,Slow
Shell Recharge Charging Station,"Redmond, WA, USA","11930 124th Ave NE, Kirkland, WA 98034",47.707366199999996,-122.17398449999999,Fast
ChargePoint Charging Station,"Redmond, WA, USA","6416 E Lake Sammamish Pkwy NE, Redmond, WA 98052",47.662861,-122.09780289999999,Slow
EV Connect Charging Station,"Redmond, WA, USA","17770 NE 78th Pl, Redmond, WA 98052",47.673966,-122.1035582,Slow
Blink Charging Station,"Redmond, WA, USA","17667 NE 76th St, Redmond, WA 98052",47.6713266,-122.1039959,Not Applicable
ChargePoint Charging Station,"Redmond, WA, USA","2301 140th Ave NE, Bellevue, WA 98005",47.630645099999995,-122.1561385,Medium
Blink Charging Station,"Redmond, WA, USA","18005 NE 68th St, Redmond, WA 98052",47.666551299999995,-122.09833119999999,Slow
ChargePoint Charging Station,"Redmond, WA, USA","18655 NE Union Hill Rd, Redmond, WA 98052",47.676051,-122.091578,Slow
Blink Charging Station,"Redmond, WA, USA","9931 Willows Rd NE, Redmond, WA 98052",47.688818,-122.15031499999999,Slow
ChargePoint Charging Station,"Redmond, WA, USA","11601 Willows Rd NE, Redmond, WA 98052",47.7048415,-122.15444099999999,Slow
Volta Charging Station,"Redmond, WA, USA","8234 NE 84th St, Kirkland, WA 98033",47.6787272,-122.1740315,Slow
ChargePoint Charging Station,"Redmond, WA, USA","12632 Totem Lake Blvd NE, Kirkland, WA 98034",47.713104,-122.18172,Slow
Hampton Inn Charging Station,"Redmond, WA, USA","17770 NE 78th Pl, Redmond, WA 98052",47.673966,-122.1035586,Slow
ChargePoint Charging Station,"Redmond, WA, USA","12039 NE 128th St, Kirkland, WA 98034",47.7144348,-122.1793996,Slow
ChargePoint Charging Station,"Redmond, WA, USA","2752-2836 152nd Ave NE, Redmond, WA 98052",47.635607199999995,-122.1372286,Slow
ChargePoint Charging Station,"Redmond, WA, USA","999 164th Ave NE, Bellevue, WA 98008",47.618219499999995,-122.1224761,Slow
Blink Charging Station,"Redmond, WA, USA","11431 Willows Rd NE, Redmond, WA 98052",47.703728,-122.15423709999999,Slow
ChargePoint Charging Station,"Redmond, WA, USA","12540 120th Ave NE, Kirkland, WA 98034",47.712309,-122.17951409999999,Slow
ChargePoint Charging Station,"Redmond, WA, USA","16000 NE 10th St, Bellevue, WA 98008",47.6191033,-122.12710249999999,Slow
ChargePoint Charging Station,"Redmond, WA, USA","11300-11398 128th Ave NE, Kirkland, WA 98034",47.7160562,-122.1794546,Slow
Blink Charging Station,"Redmond, WA, USA","14700 NE 29th Pl, Bellevue, WA 98007",47.6364808,-122.1449785,Slow
ChargePoint Charging Station,"Redmond, WA, USA","12040 NE 128th St, Kirkland, WA 98034",47.714793,-122.17686889999999,Slow
ChargePoint Charging Station,"Redmond, WA, USA","14580 NE 145th St, Woodinville, WA 98072",47.734210999999995,-122.1470409,Slow
Blink Charging Station,"Redmond, WA, USA","2580 152nd Ave NE, Redmond, WA 98052",47.6331559,-122.13591489999999,Slow
Blink Charging Station,"Redmond, WA, USA","11010 NE 124th Ln, Kirkland, WA 98034",47.711825999999995,-122.19471899999999,Slow
ChargePoint Charging Station,"Redmond, WA, USA","16256 NE 8th St, Bellevue, WA 98008",47.617126,-122.12226,Slow
Blink Charging Station,"Redmond, WA, USA","11605 132nd Ave NE, Kirkland, WA 98034",47.7054932,-122.16783029999999,Slow
Blink Charging Station,"Redmond, WA, USA","5023 148th Ave NE, Bellevue, WA 98007",47.6538148,-122.1449353,Slow
ChargePoint Charging Station,"Redmond, WA, USA","52 Kirkland Ave, Kirkland, WA 98033",47.675570199999996,-122.2073726,Slow
ChargePoint Charging Station,"Redmond, WA, USA","NE 37th Ct, Kirkland, WA 98033",47.643757199999996,-122.1968988,Slow
ChargePoint Charging Station,"Redmond, WA, USA","308 Kirkland Ave, Kirkland, WA 98033",47.675739199999995,-122.20318599999999,Slow
ChargePoint Charging Station,"Redmond, WA, USA","3100 Northup Way, Bellevue, WA 98004",47.638269199999996,-122.1912938,Slow
ChargePoint Charging Station,"Redmond, WA, USA","123 5th Ave, Kirkland, WA 98033",47.678475899999995,-122.2068063,Slow
ChargePoint Charging Station,"Redmond, WA, USA","434 Kirkland Way, Kirkland, WA 98033",47.67624,-122.199675,Slow
Blink Charging Station,"Redmond, WA, USA","12405 NE 85th St, Kirkland, WA 98033",47.678973,-122.1750105,Slow
ChargePoint Charging Station,"Redmond, WA, USA","Unnamed Road, Kirkland, WA 98033",47.6753648,-122.2074791,Slow
ChargePoint Charging Station,"Redmond, WA, USA","1288 124th Ave NE, Bellevue, WA 98005",47.6219384,-122.175997,Slow
ChargePoint Charging Station,"Redmond, WA, USA","9800 NE 37th Ct, Kirkland, WA 98033",47.643584,-122.1959131,Slow
Shell Recharge Charging Station,"Redmond, WA, USA","805 156th Ave NE, Bellevue, WA 98007",47.617634599999995,-122.1334394,Slow
Electric Vehicle Charging Station,"Redmond, WA, USA","3801 159th Ave NE # 17, Redmond, WA 98052",47.643702,-122.1288239,Unknown
Blink Charging Station,"Redmond, WA, USA","14526 NE 7th Pl, Bellevue, WA 98007",47.616737,-122.146188,Slow
ChargePoint Charging Station,"Redmond, WA, USA","15550 NE Turing St, Redmond, WA 98052",47.6356301,-122.13362029999999,Not Applicable
Blink Charging Station,"Redmond, WA, USA","Kirkland, WA 98033",47.655653199999996,-122.2051934,Slow
Shell Recharge Charging Station,"Redmond, WA, USA","616 120th Ave NE, Bellevue, WA 98005",47.615410399999995,-122.1794845,Slow
Blink Charging Station,"Redmond, WA, USA","2125 158th Ct NE Suite 110, Bellevue, WA 98008",47.630395299999996,-122.1284522,Slow
Blink Charging Station,"Redmond, WA, USA","12221 120th Ave NE, Kirkland, WA 98034",47.7083478,-122.18381629999999,Not Applicable
Blink Charging Station,"Redmond, WA, USA","647 140th Ave NE, Bellevue, WA 98005",47.6166705,-122.15404699999999,Slow
Shell Recharge Charging Station,"Redmond, WA, USA","18080 NE 76th St, Redmond, WA 98052",47.6723594,-122.09903399999999,Not Applicable
Blink Charging Station,"Redmond, WA, USA","16242 NE 13th Pl, Bellevue, WA 98008",47.621913,-122.122271,Not Applicable
Blink Charging Station,"Redmond, WA, USA","Parking lot, 2041 148th Ave NE, Bellevue, WA 98007",47.6293137,-122.144053,Not Applicable
Blink Charging Station,"Redmond, WA, USA","11607 98th Ave NE, Kirkland, WA 98034",47.7047538,-122.21115839999999,Slow
Blink Charging Station,"Redmond, WA, USA","16240 NE 13th Pl, Bellevue, WA 98008",47.622996,-122.12324699999999,Not Applicable
Blink Charging Station,"Redmond, WA, USA","12034 134th Ct NE, Redmond, WA 98052",47.708826699999996,-122.1601307,Slow
Chargefox Charging Station,"Redmond, WA, USA","3850 148th Ave NE, Redmond, WA 98052",47.6436911,-122.14131769999999,Not Applicable
Electric Vehicle Charging Station,"Redmond, WA, USA","15590 NE 31st St, Redmond, WA 98052",47.639068599999995,-122.1331991,Not Applicable
Blink Charging Station,"Redmond, WA, USA","1231 116th Ave NE, Bellevue, WA 98004",47.621193999999996,-122.186139,Slow
Electric Circuit Charging Station,"Redmond, WA, USA","805 156th Ave NE, Bellevue, WA 98007",47.617633999999995,-122.13343889999999,Not Applicable
Tesla Destination Charger,"Redmond, WA, USA","14850 NE 145th St, Woodinville, WA 98072",47.7339591,-122.1469968,Medium
Blink Charging Station,"Redmond, WA, USA","2000 Carillon Point, Kirkland, WA 98033",47.6565053,-122.20672789999999,Slow
Blink Charging Station,"Redmond, WA, USA","11 Main St S, Kirkland, WA 98033",47.6753316,-122.20579679999999,Slow
Blink Charging Station,"Redmond, WA, USA","3500 Carillon Point, Kirkland, WA 98033",47.657544099999996,-122.2065131,Not Applicable
Volta Charging Station,"Redmond, WA, USA","Redmond, WA 98053",47.645190799999995,-122.02597689999999,Slow
Electric Vehicle Charging Station,"Redmond, WA, USA","787 6th St South, Kirkland, WA 98033",47.669109299999995,-122.19783609999999,Not Applicable
Shell Recharge Charging Station,"Redmond, WA, USA","12543 NE 23rd Pl, Bellevue, WA 98005",47.6311949,-122.17257359999999,Not Applicable
Electric Vehicle Charging Station,"Redmond, WA, USA","14216 140th Pl NE, Kirkland, WA 98034",47.7300553,-122.15126989999999,Not Applicable
Blink Charging Station,"Redmond, WA, USA","1407 116th Ave NE, Bellevue, WA 98004",47.6229655,-122.1858991,Not Applicable
Shell Recharge Charging Station,"Redmond, WA, USA","12903 NE 20th St, Bellevue, WA 98005",47.6276967,-122.16789089999999,Not Applicable
Tesla Supercharger,"Redmond, WA, USA","Fred Meyer, 12221 120th Ave NE, Kirkland, WA 98034",47.709207,-122.18345199999999,Very fast
EVgo Charging Station,"Bellevue, WA, USA","888 116th Ave NE, Bellevue, WA 98004",47.618936299999994,-122.1841633,Super fast
Electrify America Charging Station,"Bellevue, WA, USA","300 Bellevue Way NE, Bellevue, WA 98004",47.6130189,-122.2004697,Very fast
ChargePoint Charging Station,"Bellevue, WA, USA","600 Bellevue Square, Bellevue, WA 98004",47.6157962,-122.20557869999999,Slow
Tesla Supercharger,"Bellevue, WA, USA","10333 NE 1st St, Bellevue, WA 98004",47.611048,-122.202181,Fast
EVgo Charging Station,"Bellevue, WA, USA","2041 148th Ave NE, Bellevue, WA 98007",47.628025199999996,-122.14375299999999,Super fast
ChargePoint Charging Station,"Bellevue, WA, USA","11011 NE 9th St, Bellevue, WA 98004",47.6177077,-122.1922134,Medium
ChargePoint Charging Station,"Bellevue, WA, USA","10201 NE 4th St, Bellevue, WA 98004",47.6130924,-122.2064613,Slow
ChargePoint Charging Station,"Bellevue, WA, USA","Bellevue, WA 98004",47.6198547,-122.19591899999999,Slow
ChargePoint Charging Station,"Bellevue, WA, USA","958 111th Ave NE, Bellevue, WA 98004",47.618696,-122.19178699999999,Slow
ChargePoint Charging Station,"Bellevue, WA, USA","Bellevue Square - North Building, Ave NE, Bellevue, WA 98004",47.6169711,-122.2030092,Slow
bp pulse Charging Station,"Bellevue, WA, USA","12903 NE 20th St, Bellevue, WA 98005",47.627770999999996,-122.16787339999999,Fast
ChargePoint Charging Station,"Bellevue, WA, USA","10885 NE 4th St, Bellevue, WA 98004",47.6133909,-122.1947776,Slow
ChargePoint Charging Station,"Bellevue, WA, USA","601 108th Ave NE, Bellevue, WA 98004",47.6163951,-122.1968369,Slow
ChargePoint Charging Station,"Bellevue, WA, USA","288 106th Ave NE, Bellevue, WA 98004",47.6127543,-122.1984971,Slow
ChargePoint Charging Station,"Bellevue, WA, USA","10710 NE 10th St, Bellevue, WA 98004",47.6197588,-122.1971906,Slow
ChargePoint Charging Station,"Bellevue, WA, USA","575 Bellevue Way NE, Bellevue, WA 98004",47.618331,-122.20130089999999,Slow
ChargePoint Charging Station,"Bellevue, WA, USA","110 Bellevue Way NE, Bellevue, WA 98004",47.616416,-122.201146,Slow
ChargePoint Charging Station,"Bellevue, WA, USA","11101 NE 12th St, Bellevue, WA 98004",47.620793,-122.1924689,Slow
ChargePoint Charging Station,"Bellevue, WA, USA","10822 NE 2nd Pl, Bellevue, WA 98004",47.612751499999995,-122.1942225,Slow
ChargePoint Charging Station,"Bellevue, WA, USA","450 110th Ave NE, Bellevue, WA 98004",47.6148185,-122.19323729999999,Slow
ChargePoint Charging Station,"Bellevue, WA, USA","10550 NE 10th St, Bellevue, WA 98004",47.618835,-122.19982999999999,Slow
Semaconnect Charging Station,"Bellevue, WA, USA","11100 NE 8th St, Bellevue, WA 98004",47.617644399999996,-122.19137889999999,Slow
ChargePoint Charging Station,"Bellevue, WA, USA","432-492 Bellevue Way NE, Bellevue, WA 98004",47.614294,-122.2012549,Slow
bp pulse Charging Station,"Bellevue, WA, USA","13948 NE 20th St, Bellevue, WA 98005",47.628440499999996,-122.1541082,Very fast
EVgo Charging Station,"Bellevue, WA, USA","2755 77th Ave SE, Mercer Island, WA 98040",47.584868799999995,-122.23609859999999,Fast
Shell Recharge Charging Station,"Bellevue, WA, USA","225 108th Ave NE, Bellevue, WA 98004",47.6123003,-122.1966006,Slow
Blink Charging Station,"Bellevue, WA, USA","155 108th Ave NE, Bellevue, WA 98004",47.611759899999996,-122.19734,Slow
Blink Charging Station,"Bellevue, WA, USA","10333 NE 1st St, Bellevue, WA 98004",47.610983499999996,-122.2021273,Slow
Flo Charging Station,"Bellevue, WA, USA","1100 112th Ave NE, Bellevue, WA 98004",47.620163,-122.190604,Slow
Flo Charging Station,"Bellevue, WA, USA","11111 NE 8th St, Bellevue, WA 98004",47.6171298,-122.1925562,Slow
Blink Charging Station,"Bellevue, WA, USA","10777 NE 10th St, Bellevue, WA 98004",47.6188947,-122.1969453,Slow
Blink Charging Station,"Bellevue, WA, USA","10333 Main St, Bellevue, WA 98004",47.6098443,-122.20242739999999,Slow
ChargePoint Charging Station,"Bellevue, WA, USA","13817 NE 20th St, Bellevue, WA 98005",47.6274449,-122.1559133,Medium
ChargePoint Charging Station,"Bellevue, WA, USA","11011 NE 9th St, Bellevue, WA 98004",47.617821899999996,-122.1939309,Not Applicable
ChargePoint Charging Station,"Bellevue, WA, USA","316 116th Ave NE, Bellevue, WA 98004",47.612704,-122.18513899999999,Slow
Blink Charging Station,"Bellevue, WA, USA","1111 NE 8th St, Bellevue, WA 98004",47.617286899999996,-122.1919353,Not Applicable
Blink Charging Station,"Bellevue, WA, USA","11225 SE 6th St, Bellevue, WA 98004",47.604151099999996,-122.18940939999999,Medium
ChargePoint Charging Station,"Bellevue, WA, USA","2301 140th Ave NE, Bellevue, WA 98005",47.630645099999995,-122.1561385,Medium
Tesla Destination Charger,"Bellevue, WA, USA","208 106th Pl NE, Bellevue, WA 98004",47.612345,-122.19770199999999,Medium
Tesla Destination Charger,"Bellevue, WA, USA","11010 NE 8th St, Bellevue, WA 98004",47.6176165,-122.1934833,Medium
Blink Charging Station,"Bellevue, WA, USA","425 106th Ave NE, Bellevue, WA 98004",47.6141795,-122.199362,Slow
Blink Charging Station,"Bellevue, WA, USA","10410 NE 2nd St, Bellevue, WA 98004",47.612179399999995,-122.2009976,Slow
Blink Charging Station,"Bellevue, WA, USA","330 120th Ave NE, Bellevue, WA 98005",47.612834,-122.178704,Slow
Electric Circuit Charging Station,"Bellevue, WA, USA","225 108th Ave NE, Bellevue, WA 98004",47.6123,-122.1966001,Not Applicable
Blink Charging Station,"Bellevue, WA, USA","325 120th Ave NE, Bellevue, WA 98005",47.611483799999995,-122.182711,Slow
Shell Recharge Charging Station,"Bellevue, WA, USA","616 120th Ave NE, Bellevue, WA 98005",47.615410399999995,-122.1794845,Slow
ChargePoint Charging Station,"Bellevue, WA, USA","1300 114th Ave SE, Bellevue, WA 98004",47.5997754,-122.18739869999999,Slow
ChargePoint Charging Station,"Bellevue, WA, USA","1288 124th Ave NE, Bellevue, WA 98005",47.6219384,-122.175997,Slow
Blink Charging Station,"Bellevue, WA, USA","929 108th Ave NE #1300, Bellevue, WA 98004",47.618317,-122.1969022,Slow
Blink Charging Station,"Bellevue, WA, USA","220 120th Ave NE, Bellevue, WA 98005",47.611991599999996,-122.1784483,Slow
Blink Charging Station,"Bellevue, WA, USA","333 108th Ave NE, Bellevue, WA 98004",47.6133892,-122.1970996,Slow
Blink Charging Station,"Bellevue, WA, USA","600 108th Ave NE nSuite 116, Bellevue, WA 98004",47.6159842,-122.195596,Slow
Blink Charging Station,"Bellevue, WA, USA","1231 116th Ave NE, Bellevue, WA 98004",47.621193999999996,-122.186139,Slow
Tesla Destination Charger,"Bellevue, WA, USA","300 112th Ave SE, Bellevue, WA 98004",47.607591899999996,-122.1895819,Medium
ChargePoint Charging Station,"Bellevue, WA, USA","3100 Northup Way, Bellevue, WA 98004",47.638269199999996,-122.1912938,Slow
Shell Recharge Charging Station,"Bellevue, WA, USA","10450 NE 10th St, Bellevue, WA 98004",47.6197448,-122.2005325,Not Applicable
ChargePoint Charging Station,"Bellevue, WA, USA","NE 37th Ct, Kirkland, WA 98033",47.643757199999996,-122.1968988,Slow
Blink Charging Station,"Bellevue, WA, USA","7707 SE 27th St, Mercer Island, WA 98040",47.5862905,-122.23459129999999,Medium
ChargePoint Charging Station,"Bellevue, WA, USA","13545 SE 26th St, Bellevue, WA 98005",47.5870234,-122.1593279,Slow
ChargePoint Charging Station,"Bellevue, WA, USA","8236 SE 24th St, Mercer Island, WA 98040",47.5900533,-122.2285627,Slow
ChargePoint Charging Station,"Bellevue, WA, USA","9800 NE 37th Ct, Kirkland, WA 98033",47.643584,-122.1959131,Slow
ChargePoint Charging Station,"Bellevue, WA, USA","3535 Factoria Blvd SE, Bellevue, WA 98006",47.578599499999996,-122.17156609999999,Slow
ChargePoint Charging Station,"Bellevue, WA, USA","2430 76th Ave SE, Mercer Island, WA 98040",47.5881215,-122.2372058,Slow
ChargePoint Charging Station,"Bellevue, WA, USA","Bellevue, WA 98004",47.612051199999996,-122.1863906,Not Applicable
ChargePoint Charging Station,"Bellevue, WA, USA","13800 SE 32nd St, Bellevue, WA 98005",47.582336299999994,-122.15864359999999,Slow
ChargePoint Charging Station,"Bellevue, WA, USA","2758 78th Ave SE, Mercer Island, WA 98040",47.585809,-122.23323699999999,Slow
ChargePoint Charging Station,"Bellevue, WA, USA","9611 SE 36th St, Mercer Island, WA 98040",47.5773967,-122.21042829999999,Slow
Blink Charging Station,"Bellevue, WA, USA","7525 SE 4th St Suite 180, Mercer Island, WA 98040",47.606919999999995,-122.19872219999999,Slow
Blink Charging Station,"Bellevue, WA, USA","1424 148th Ave SE, Bellevue, WA 98007",47.5976,-122.14200009999999,Slow
ChargePoint Charging Station,"Bellevue, WA, USA","4030 86th Ave SE, Mercer Island, WA 98040",47.5735959,-122.22383479999999,Slow
Blink Charging Station,"Bellevue, WA, USA","14526 NE 7th Pl, Bellevue, WA 98007",47.616737,-122.146188,Slow
Blink Charging Station,"Bellevue, WA, USA","647 140th Ave NE, Bellevue, WA 98005",47.6166705,-122.15404699999999,Slow
Blink Charging Station,"Bellevue, WA, USA","3036 Snoqualmie River Rd, Bellevue, WA 98005",47.5851259,-122.150437,Slow
Blink Charging Station,"Bellevue, WA, USA","1407 116th Ave NE, Bellevue, WA 98004",47.6229655,-122.1858991,Not Applicable
Blink Charging Station,"Bellevue, WA, USA","3100 139th Ave SE, Bellevue, WA 98005",47.582405,-122.153989,Slow
Blink Charging Station,"Bellevue, WA, USA","13810 SE Eastgate Way, Bellevue, WA 98005",47.5807909,-122.15562179999999,Slow
Blink Charging Station,"Bellevue, WA, USA","3655 131st Ave SE, Bellevue, WA 98006",47.5789161,-122.16659089999999,Slow
Shell Recharge Charging Station,"Bellevue, WA, USA","12543 NE 23rd Pl, Bellevue, WA 98005",47.6311949,-122.17257359999999,Not Applicable
Volta Charging Station,"Bellevue, WA, USA","Parking lot, Bellevue, WA 98006",47.575882799999995,-122.17081859999999,Slow
Blink Charging Station,"Bellevue, WA, USA","13035 SE 26th St, Bellevue, WA 98005",47.587215799999996,-122.16514149999999,Medium
Fast Charging Station,"Bellevue, WA, USA","Bellefield Building, 1309 114th Ave SE, Bellevue, WA 98004",47.5989375,-122.18917909999999,Not Applicable
Shell Recharge Charging Station,"Bellevue, WA, USA","12903 NE 20th St, Bellevue, WA 98005",47.6276967,-122.16789089999999,Not Applicable
Volta Charging Station,"Bellevue, WA, USA","Bellevue, WA 98006",47.578661499999995,-122.17044349999999,Slow
Blink Charging Station,"Bellevue, WA, USA","3625 132nd Ave SE, Bellevue, WA 98006",47.5785847,-122.16571449999999,Slow
EVgo Charging Station,"Seattle, WA, USA","1001 Broadway, Seattle, WA 98122",47.6115113,-122.32108249999999,Fast
ChargePoint Charging Station,"Seattle, WA, USA","338 Weller St Bridge, Seattle, WA 98134",47.597360599999995,-122.33045569999999,Fast
Shell Recharge Charging Station,"Seattle, WA, USA","56 Seneca St, Seattle, WA 98101",47.605598799999996,-122.33890029999999,Fast
Tesla Supercharger,"Seattle, WA, USA","601 Union St, Seattle, WA 98101",47.6100263,-122.3320751,Fast
Blink Charging Station,"Seattle, WA, USA","925 4th Ave, Seattle, WA 98104",47.6055815,-122.3334481,Slow
EVgo Charging Station,"Seattle, WA, USA","1406 Harvard Ave, Seattle, WA 98122",47.613346,-122.3218193,Fast
ChargePoint Charging Station,"Seattle, WA, USA","1609 Harvard Ave, Seattle, WA 98122",47.615493799999996,-122.3229125,Fast
ChargePoint Charging Station,"Seattle, WA, USA","1001 4th Ave, Seattle, WA 98154",47.606217699999995,-122.33384199999999,Slow
ChargePoint Charging Station,"Seattle, WA, USA","324 University St, Seattle, WA 98101",47.608016799999994,-122.33527269999999,Slow
Blink Charging Station,"Seattle, WA, USA","800 5th Ave, Seattle, WA 98104",47.6056652,-122.33052789999999,Slow
Blink Charging Station,"Seattle, WA, USA","415 Seneca St, Seattle, WA 98101",47.6073976,-122.333113,Not Applicable
Tesla Supercharger,"Seattle, WA, USA","1201 2nd Ave, Seattle, WA 98101",47.606601,-122.33749499999999,Fast
ChargePoint Charging Station,"Seattle, WA, USA","611 2nd Ave, Seattle, WA 98104",47.602553,-122.332883,Slow
ChargePoint Charging Station,"Seattle, WA, USA","1012 Terry Ave, Seattle, WA 98101",47.6095008,-122.32646299999999,Slow
Blink Charging Station,"Seattle, WA, USA","505 1st Ave S, Seattle, WA 98104",47.5974244,-122.33471739999999,Medium
Blink Charging Station,"Seattle, WA, USA","1100 5th Ave, Seattle, WA 98101",47.6074068,-122.3324342,Not Applicable
ChargePoint Charging Station,"Seattle, WA, USA","415 6th Ave, Seattle, WA 98104",47.6031,-122.3274833,Slow
Blink Charging Station,"Seattle, WA, USA","1800 9th Ave, Seattle, WA 98101",47.615286,-122.333339,Medium
ChargePoint Charging Station,"Seattle, WA, USA","253-295 S Jackson St, Seattle, WA 98104",47.5990001,-122.3308043,Slow
Blink Charging Station,"Seattle, WA, USA","1007 1st Ave, Seattle, WA 98104",47.604937299999996,-122.3367811,Slow
ChargePoint Charging Station,"Seattle, WA, USA","600 9th Ave, Seattle, WA 98104",47.605824899999995,-122.3243868,Slow
Blink Charging Station,"Seattle, WA, USA","1191 2nd Ave, Seattle, WA 98101",47.606006099999995,-122.336716,Slow
ChargePoint Charging Station,"Seattle, WA, USA","2021 7th Ave, Seattle, WA 98121",47.6155806,-122.33887539999999,Slow
ChargePoint Charging Station,"Seattle, WA, USA","2121 7th Ave, Seattle, WA 98121",47.613923,-122.3416299,Slow
Blink Charging Station,"Seattle, WA, USA","908 Jefferson St, Seattle, WA 98104",47.605477,-122.323427,Slow
Blink Charging Station,"Seattle, WA, USA","719 2nd Ave, Seattle, WA 98104",47.6034934,-122.334142,Slow
Electric Circuit Charging Station,"Seattle, WA, USA","520 Pike St, Seattle, WA 98101",47.611101999999995,-122.334893,Slow
Tesla Destination Charger,"Seattle, WA, USA","1531 7th Ave, Seattle, WA 98101",47.6123311,-122.3343649,Medium
ChargePoint Charging Station,"Seattle, WA, USA","Parking lot, 1901 Western Ave D, Seattle, WA 98101",47.609486999999994,-122.342908,Slow
ChargePoint Charging Station,"Seattle, WA, USA","2125 1st Ave, Seattle, WA 98121",47.6121517,-122.3452835,Slow
ChargePoint Charging Station,"Seattle, WA, USA","1229 Madison St, Seattle, WA 98104",47.6100796,-122.3221511,Slow
ChargePoint Charging Station,"Seattle, WA, USA","1920 Terry Ave, Seattle, WA 98101",47.617016,-122.33408,Slow
ChargePoint Charging Station,"Seattle, WA, USA","2121 8th Ave, Seattle, WA 98121",47.6166872,-122.33890489999999,Slow
Blink Charging Station,"Seattle, WA, USA","1508 7th Ave, Seattle, WA 98101",47.611985,-122.33349559999999,Not Applicable
Blink Charging Station,"Seattle, WA, USA","1011 Western Ave, Seattle, WA 98104",47.604634499999996,-122.3382757,Slow
ChargePoint Charging Station,"Seattle, WA, USA","2205 7th Ave, Seattle, WA 98121",47.616653,-122.34079399999999,Slow
Blink Charging Station,"Seattle, WA, USA","515 Minor Ave, Seattle, WA 98104",47.606359999999995,-122.32163899999999,Slow
Blink Charging Station,"Seattle, WA, USA","450 Alaskan Way S, Seattle, WA 98104",47.5987016,-122.3351902,Slow
Blink Charging Station,"Seattle, WA, USA","1101 Madison St, Seattle, WA 98104",47.6091997,-122.3241094,Slow
Blink Charging Station,"Seattle, WA, USA","1401 Broadway, Seattle, WA 98122",47.6137442,-122.3213926,Slow
Blink Charging Station,"Seattle, WA, USA","1823 Minor Ave, Seattle, WA 98101",47.6171782,-122.3313731,Slow
Blink Charging Station,"Seattle, WA, USA","325 9th Ave, Seattle, WA 98104",47.6039634,-122.3241159,Slow
Blink Charging Station,"Seattle, WA, USA","Seattle, WA 98101",47.609412,-122.335219,Not Applicable
Blink Charging Station,"Seattle, WA, USA","550 4th Ave S, Seattle, WA 98134",47.597507799999995,-122.32859499999999,Slow
Blink Charging Station,"Seattle, WA, USA","818 Stewart St, Seattle, WA 98101",47.615645799999996,-122.3350555,Slow
Blink Charging Station,"Seattle, WA, USA","520 Occidental Ave S, Seattle, WA 98134",47.5977415,-122.33292329999999,Slow
Tesla Destination Charger,"Seattle, WA, USA","1325 6th Ave, Seattle, WA 98101",47.6096369,-122.33337879999999,Medium
Blink Charging Station,"Seattle, WA, USA","1812 Boren Ave, Seattle, WA 98101",47.6170349,-122.33218799999999,Slow
Blink Charging Station,"Seattle, WA, USA","209 12th Ave S, Seattle, WA 98144",47.6004833,-122.31738,Medium
Blink Charging Station,"Seattle, WA, USA","999 3rd Ave Level A, Seattle, WA 98104",47.6050822,-122.3340362,Slow
Blink Charging Station,"Seattle, WA, USA","600 Broadway, Seattle, WA 98122",47.6079067,-122.3196425,Slow
Blink Charging Station,"Seattle, WA, USA","2025 1st Ave, Seattle, WA 98121",47.6113722,-122.34370299999999,Slow
Blink Charging Station,"Seattle, WA, USA","Seattle, WA 98134",47.597428,-122.330452,Not Applicable
OpConnect Charging Station,"Seattle, WA, USA","700 5th Ave, Seattle, WA 98104",47.6050901,-122.3299108,Slow
Tesla Destination Charger,"Seattle, WA, USA","411 University St, Seattle, WA 98101",47.6080626,-122.3340941,Slow
Tesla Destination Charger,"Seattle, WA, USA","620 Stewart St, Seattle, WA 98101",47.6142276,-122.3364965,Medium
Tesla Destination Charger,"Seattle, WA, USA","1000 1st Ave, Seattle, WA 98104",47.605060699999996,-122.3362298,Slow
Blink Charging Station,"Seattle, WA, USA","86 Pine St, Seattle, WA 98101",47.6098122,-122.3413016,Slow
Blink Charging Station,"Seattle, WA, USA","1700 7th Ave UNIT 1800, Seattle, WA 98101",47.6140215,-122.335172,Slow
Blink Charging Station,"Seattle, WA, USA","1124 Columbia St, Seattle, WA 98104",47.608643799999996,-122.32369969999999,Slow
Blink Charging Station,"Seattle, WA, USA","705 Pike St, Seattle, WA 98101",47.6113782,-122.3314401,Slow
Blink Charging Station,"Seattle, WA, USA","1615 Belmont Ave, Seattle, WA 98122",47.615584,-122.3246765,Medium
Blink Charging Station,"Seattle, WA, USA","1600 7th Ave, Seattle, WA 98191",47.6132353,-122.33440329999999,Slow
Blink Charging Station,"Seattle, WA, USA","1901 Western Ave, Seattle, WA 98101",47.609158199999996,-122.34184409999999,Slow
Tesla Destination Charger,"Seattle, WA, USA","1415 5th Ave, Seattle, WA 98101",47.6100232,-122.3355284,Slow
Tesla Destination Charger,"Seattle, WA, USA","2100 Alaskan Wy, Seattle, WA 98121",47.610845,-122.347258,Medium
Blink Charging Station,"Seattle, WA, USA","1050 James St, Seattle, WA 98104",47.6065736,-122.32307019999999,Slow
Blink Charging Station,"Seattle, WA, USA","2105 5th Ave, Seattle, WA 98121",47.6144471,-122.3410102,Slow
Blink Charging Station,"Seattle, WA, USA","1099 Stewart St, Seattle, WA 98101",47.6164918,-122.33248789999999,Slow
Blink Charging Station,"Seattle, WA, USA","1220 Howell St, Seattle, WA 98101",47.6174933,-122.3302255,Not Applicable
Blink Charging Station,"Seattle, WA, USA","1530 Belmont Ave, Seattle, WA 98122",47.6148399,-122.3241666,Slow
Blink Charging Station,"Seattle, WA, USA","Union Station, 505 5th Ave S, Seattle, WA 98104",47.5975156,-122.3276726,Slow
Loop Charging Station,"Seattle, WA, USA",US,47.617689999999996,-122.33059,Slow
Blink Charging Station,"Seattle, WA, USA","125 Boren Ave, Seattle, WA 98144",47.6013484,-122.3179139,Slow
